[{"OBJECT_NAME":"STARLINK-5426","OBJECT_ID":"2022-175AW","EPOCH":"2026-03-09T22:23:02.468544","MEAN_MOTION":15.08832559,"ECCENTRICITY":0.00012058,"INCLINATION":53.219,"RA_OF_ASC_NODE":347.4862,"ARG_OF_PERICENTER":97.7493,"MEAN_ANOMALY":262.3636,"EPHEMERIS_TYPE":0,"CLASSIFICATION_TYPE":"U","NORAD_CAT_ID":54802,"ELEMENT_SET_NO":999,"REV_AT_EPOCH":18073,"BSTAR":-7.72354e-5,"MEAN_MOTION_DOT":-1.517e-5,"MEAN_MOTION_DDOT":0},{"OBJECT_NAME":"OBJECT B","OBJECT_ID":"2025-226B","EPOCH":"2026-03-09T23:02:31.139232","MEAN_MOTION":15.09715314,"ECCENTRICITY":0.00204156,"INCLINATION":97.6443,"RA_OF_ASC_NODE":147.8366,"ARG_OF_PERICENTER":114.3969,"MEAN_ANOMALY":245.9393,"EPHEMERIS_TYPE":0,"CLASSIFICATION_TYPE":"U","NORAD_CAT_ID":65939,"ELEMENT_SET_NO":999,"REV_AT_EPOCH":2260,"BSTAR":0.00038297064,"MEAN_MOTION_DOT":6.14e-5,"MEAN_MOTION_DDOT":0}]
